start=new Date('2022-01-10T00:00:00.000Z').valueOf();
sats=[{"CLASSIFICATION_TYPE":"U","SEMIMAJOR_AXIS":"6925.340","REF_FRAME":"TEME","COUNTRY_CODE":"US","TLE_LINE2":"2 46566  53.0529 140.2038 0001713  92.1055 268.0130 15.06402882 70682","OBJECT_ID":"2020-070AL","RCS_SIZE":"LARGE","CENTER_NAME":"EARTH","PERIOD":"95.592","DECAY_DATE":null,"MEAN_MOTION_DOT":"0.00001431","MEAN_ANOMALY":"268.0130","OBJECT_TYPE":"PAYLOAD","APOAPSIS":"548.391","ARG_OF_PERICENTER":"92.1055","EPOCH":"2022-01-09T16:21:33.311520","MEAN_MOTION_DDOT":"0.0000000000000","RA_OF_ASC_NODE":"140.2038","OBJECT_NAME":"STARLINK-1740","TIME_SYSTEM":"UTC","FILE":"3268323","ELEMENT_SET_NO":"999","BSTAR":"0.00011496000000","NORAD_CAT_ID":"46566","REV_AT_EPOCH":"7068","LAUNCH_DATE":"2020-10-06","GP_ID":"193557538","ECCENTRICITY":"0.00017130","MEAN_ELEMENT_THEORY":"SGP4","INCLINATION":"53.0529","SITE":"AFETR","PERIAPSIS":"546.018","TLE_LINE1":"1 46566U 20070AL  22009.68163555  .00001431  00000-0  11496-3 0  9991","EPHEMERIS_TYPE":"0","MEAN_MOTION":"15.06402882"},{"ARG_OF_PERICENTER":"95.9900","EPOCH":"2022-01-09T21:50:38.141952","MEAN_ANOMALY":"264.1291","APOAPSIS":"548.444","OBJECT_TYPE":"PAYLOAD","DECAY_DATE":null,"MEAN_MOTION_DOT":"0.00001525","OBJECT_ID":"2020-070AM","CENTER_NAME":"EARTH","RCS_SIZE":"LARGE","PERIOD":"95.592","TLE_LINE2":"2 46567  53.0545 139.1873 0001780  95.9900 264.1291 15.06400896 70722","COUNTRY_CODE":"US","REF_FRAME":"TEME","SEMIMAJOR_AXIS":"6925.346","CLASSIFICATION_TYPE":"U","TLE_LINE1":"1 46567U 20070AM  22009.91016368  .00001525  00000-0  12124-3 0  9990","PERIAPSIS":"545.978","MEAN_MOTION":"15.06400896","EPHEMERIS_TYPE":"0","ECCENTRICITY":"0.00017800","SITE":"AFETR","INCLINATION":"53.0545","MEAN_ELEMENT_THEORY":"SGP4","LAUNCH_DATE":"2020-10-06","GP_ID":"193558290","REV_AT_EPOCH":"7072","NORAD_CAT_ID":"46567","BSTAR":"0.00012124000000","FILE":"3268323","ELEMENT_SET_NO":"999","TIME_SYSTEM":"UTC","RA_OF_ASC_NODE":"139.1873","MEAN_MOTION_DDOT":"0.0000000000000","OBJECT_NAME":"STARLINK-1741"},{"TLE_LINE2":"2 46568  53.0512 125.3579 0007164  87.7419 272.4409 15.47945317 70914","COUNTRY_CODE":"US","REF_FRAME":"TEME","SEMIMAJOR_AXIS":"6800.875","CLASSIFICATION_TYPE":"U","ARG_OF_PERICENTER":"87.7419","EPOCH":"2022-01-09T21:17:10.131648","MEAN_ANOMALY":"272.4409","APOAPSIS":"427.612","OBJECT_TYPE":"PAYLOAD","DECAY_DATE":null,"MEAN_MOTION_DOT":"0.00052399","OBJECT_ID":"2020-070AN","RCS_SIZE":"LARGE","PERIOD":"93.027","CENTER_NAME":"EARTH","REV_AT_EPOCH":"7091","NORAD_CAT_ID":"46568","BSTAR":"0.00098902000000","FILE":"3268323","ELEMENT_SET_NO":"999","TIME_SYSTEM":"UTC","MEAN_MOTION_DDOT":"0.0000000000000","RA_OF_ASC_NODE":"125.3579","OBJECT_NAME":"STARLINK-1743","TLE_LINE1":"1 46568U 20070AN  22009.88692282  .00052399  00000-0  98902-3 0  9995","PERIAPSIS":"417.867","MEAN_MOTION":"15.47945317","EPHEMERIS_TYPE":"0","ECCENTRICITY":"0.00071640","SITE":"AFETR","INCLINATION":"53.0512","MEAN_ELEMENT_THEORY":"SGP4","LAUNCH_DATE":"2020-10-06","GP_ID":"193559022"},{"EPHEMERIS_TYPE":"0","MEAN_MOTION":"15.06398993","PERIAPSIS":"546.028","TLE_LINE1":"1 46569U 20070AP  22009.65952066  .00001459  00000-0  11686-3 0  9995","GP_ID":"193557788","LAUNCH_DATE":"2020-10-06","MEAN_ELEMENT_THEORY":"SGP4","SITE":"AFETR","INCLINATION":"53.0541","ECCENTRICITY":"0.00017170","BSTAR":"0.00011686000000","NORAD_CAT_ID":"46569","REV_AT_EPOCH":"7068","OBJECT_NAME":"STARLINK-1747","MEAN_MOTION_DDOT":"0.0000000000000","RA_OF_ASC_NODE":"140.2939","TIME_SYSTEM":"UTC","FILE":"3268323","ELEMENT_SET_NO":"999","OBJECT_TYPE":"PAYLOAD","APOAPSIS":"548.406","MEAN_ANOMALY":"266.0641","EPOCH":"2022-01-09T15:49:42.585024","ARG_OF_PERICENTER":"94.0544","CENTER_NAME":"EARTH","RCS_SIZE":"LARGE","PERIOD":"95.592","OBJECT_ID":"2020-070AP","DECAY_DATE":null,"MEAN_MOTION_DOT":"0.00001459","COUNTRY_CODE":"US","TLE_LINE2":"2 46569  53.0541 140.2939 0001717  94.0544 266.0641 15.06398993 70689","CLASSIFICATION_TYPE":"U","SEMIMAJOR_AXIS":"6925.352","REF_FRAME":"TEME"},{"COUNTRY_CODE":"US","TLE_LINE2":"2 46570  53.0562 140.4020 0001732  91.4203 268.6984 15.06407265 70677","CLASSIFICATION_TYPE":"U","REF_FRAME":"TEME","SEMIMAJOR_AXIS":"6925.326","MEAN_ANOMALY":"268.6984","APOAPSIS":"548.391","OBJECT_TYPE":"PAYLOAD","ARG_OF_PERICENTER":"91.4203","EPOCH":"2022-01-09T15:12:32.641632","OBJECT_ID":"2020-070AQ","PERIOD":"95.592","RCS_SIZE":"LARGE","CENTER_NAME":"EARTH","DECAY_DATE":null,"MEAN_MOTION_DOT":"0.00001558","NORAD_CAT_ID":"46570","BSTAR":"0.00012342000000","REV_AT_EPOCH":"7067","RA_OF_ASC_NODE":"140.4020","MEAN_MOTION_DDOT":"0.0000000000000","OBJECT_NAME":"STARLINK-1748","FILE":"3268323","TIME_SYSTEM":"UTC","ELEMENT_SET_NO":"999","PERIAPSIS":"545.992","TLE_LINE1":"1 46570U 20070AQ  22009.63371113  .00001558  00000-0  12342-3 0  9993","MEAN_MOTION":"15.06407265","EPHEMERIS_TYPE":"0","LAUNCH_DATE":"2020-10-06","GP_ID":"193558038","ECCENTRICITY":"0.00017320","SITE":"AFETR","INCLINATION":"53.0562","MEAN_ELEMENT_THEORY":"SGP4"},{"MEAN_MOTION":"15.65808158","EPHEMERIS_TYPE":"0","PERIAPSIS":"368.830","TLE_LINE1":"1 46571U 20070AR  22009.82271457  .00157676  00000-0  15019-2 0  9991","GP_ID":"193558790","LAUNCH_DATE":"2020-10-06","INCLINATION":"53.0546","SITE":"AFETR","MEAN_ELEMENT_THEORY":"SGP4","ECCENTRICITY":"0.00030930","NORAD_CAT_ID":"46571","BSTAR":"0.00150190000000","REV_AT_EPOCH":"7091","OBJECT_NAME":"STARLINK-1753","MEAN_MOTION_DDOT":"0.0000000000000","RA_OF_ASC_NODE":"124.9778","TIME_SYSTEM":"UTC","FILE":"3268323","ELEMENT_SET_NO":"999","APOAPSIS":"373.005","OBJECT_TYPE":"PAYLOAD","MEAN_ANOMALY":"333.5729","EPOCH":"2022-01-09T19:44:42.538848","ARG_OF_PERICENTER":"26.5444","CENTER_NAME":"EARTH","RCS_SIZE":"LARGE","PERIOD":"91.965","OBJECT_ID":"2020-070AR","DECAY_DATE":null,"MEAN_MOTION_DOT":"0.00157676","COUNTRY_CODE":"US","TLE_LINE2":"2 46571  53.0546 124.9778 0003093  26.5444 333.5729 15.65808158 70912","CLASSIFICATION_TYPE":"U","REF_FRAME":"TEME","SEMIMAJOR_AXIS":"6749.053"},{"MEAN_MOTION_DOT":"0.00000013","DECAY_DATE":null,"RCS_SIZE":"LARGE","CENTER_NAME":"EARTH","PERIOD":"95.592","OBJECT_ID":"2020-070AS","EPOCH":"2022-01-09T19:56:31.347168","ARG_OF_PERICENTER":"85.4055","APOAPSIS":"548.640","OBJECT_TYPE":"PAYLOAD","MEAN_ANOMALY":"274.7169","REF_FRAME":"TEME","SEMIMAJOR_AXIS":"6925.349","CLASSIFICATION_TYPE":"U","TLE_LINE2":"2 46572  53.0544 159.5381 0002060  85.4055 274.7169 15.06399955 70425","COUNTRY_CODE":"US","SITE":"AFETR","INCLINATION":"53.0544","MEAN_ELEMENT_THEORY":"SGP4","ECCENTRICITY":"0.00020600","GP_ID":"193558523","LAUNCH_DATE":"2020-10-06","MEAN_MOTION":"15.06399955","EPHEMERIS_TYPE":"0","PERIAPSIS":"545.787","TLE_LINE1":"1 46572U 20070AS  22009.83091837  .00000013  00000-0  19808-4 0  9999","TIME_SYSTEM":"UTC","FILE":"3268323","ELEMENT_SET_NO":"999","OBJECT_NAME":"STARLINK-1531","MEAN_MOTION_DDOT":"0.0000000000000","RA_OF_ASC_NODE":"159.5381","REV_AT_EPOCH":"7042","NORAD_CAT_ID":"46572","BSTAR":"0.00001980800000"},{"COUNTRY_CODE":"US","TLE_LINE2":"2 46573  53.0539 145.2202 0001945  92.1475 267.9737 15.06399387 70611","CLASSIFICATION_TYPE":"U","SEMIMAJOR_AXIS":"6925.350","REF_FRAME":"TEME","MEAN_ANOMALY":"267.9737","OBJECT_TYPE":"PAYLOAD","APOAPSIS":"548.562","ARG_OF_PERICENTER":"92.1475","EPOCH":"2022-01-09T16:12:55.931040","OBJECT_ID":"2020-070AT","PERIOD":"95.592","RCS_SIZE":"LARGE","CENTER_NAME":"EARTH","MEAN_MOTION_DOT":"0.00001833","DECAY_DATE":null,"BSTAR":"0.00014191000000","NORAD_CAT_ID":"46573","REV_AT_EPOCH":"7061","MEAN_MOTION_DDOT":"0.0000000000000","RA_OF_ASC_NODE":"145.2202","OBJECT_NAME":"STARLINK-1650","FILE":"3268323","TIME_SYSTEM":"UTC","ELEMENT_SET_NO":"999","PERIAPSIS":"545.868","TLE_LINE1":"1 46573U 20070AT  22009.67564735  .00001833  00000-0  14191-3 0  9994","EPHEMERIS_TYPE":"0","MEAN_MOTION":"15.06399387","LAUNCH_DATE":"2020-10-06","GP_ID":"193557289","ECCENTRICITY":"0.00019450","MEAN_ELEMENT_THEORY":"SGP4","INCLINATION":"53.0539","SITE":"AFETR"},{"DECAY_DATE":null,"MEAN_MOTION_DOT":"0.00001419","PERIOD":"95.592","RCS_SIZE":"LARGE","CENTER_NAME":"EARTH","OBJECT_ID":"2020-070AU","EPOCH":"2022-01-09T20:38:19.018176","ARG_OF_PERICENTER":"91.6603","APOAPSIS":"548.373","OBJECT_TYPE":"PAYLOAD","MEAN_ANOMALY":"268.4576","REF_FRAME":"TEME","SEMIMAJOR_AXIS":"6925.363","CLASSIFICATION_TYPE":"U","TLE_LINE2":"2 46574  53.0540 144.4036 0001653  91.6603 268.4576 15.06395177 70646","COUNTRY_CODE":"US","INCLINATION":"53.0540","SITE":"AFETR","MEAN_ELEMENT_THEORY":"SGP4","ECCENTRICITY":"0.00016530","GP_ID":"193557539","LAUNCH_DATE":"2020-10-06","MEAN_MOTION":"15.06395177","EPHEMERIS_TYPE":"0","PERIAPSIS":"546.084","TLE_LINE1":"1 46574U 20070AU  22009.85994234  .00001419  00000-0  11415-3 0  9992","FILE":"3268323","TIME_SYSTEM":"UTC","ELEMENT_SET_NO":"999","OBJECT_NAME":"STARLINK-1660","RA_OF_ASC_NODE":"144.4036","MEAN_MOTION_DDOT":"0.0000000000000","REV_AT_EPOCH":"7064","NORAD_CAT_ID":"46574","BSTAR":"0.00011415000000"},{"PERIOD":"95.592","RCS_SIZE":"LARGE","CENTER_NAME":"EARTH","OBJECT_ID":"2020-070AV","MEAN_MOTION_DOT":"0.00002283","DECAY_DATE":null,"APOAPSIS":"548.379","OBJECT_TYPE":"PAYLOAD","MEAN_ANOMALY":"264.3914","EPOCH":"2022-01-09T17:15:55.200960","ARG_OF_PERICENTER":"95.7268","CLASSIFICATION_TYPE":"U","REF_FRAME":"TEME","SEMIMAJOR_AXIS":"6925.346","COUNTRY_CODE":"US","TLE_LINE2":"2 46575  53.0541 120.0290 0001687  95.7268 264.3914 15.06400904 70960","GP_ID":"193558291","LAUNCH_DATE":"2020-10-06","SITE":"AFETR","INCLINATION":"53.0541","MEAN_ELEMENT_THEORY":"SGP4","ECCENTRICITY":"0.00016870","MEAN_MOTION":"15.06400904","EPHEMERIS_TYPE":"0","PERIAPSIS":"546.042","TLE_LINE1":"1 46575U 20070AV  22009.71938890  .00002283  00000-0  17210-3 0  9993","OBJECT_NAME":"STARLINK-1675","RA_OF_ASC_NODE":"120.0290","MEAN_MOTION_DDOT":"0.0000000000000","FILE":"3268323","ELEMENT_SET_NO":"999","TIME_SYSTEM":"UTC","NORAD_CAT_ID":"46575","BSTAR":"0.00017210000000","REV_AT_EPOCH":"7096"}];
